COSMOS 2251 DEB         
1 35066U 93036AHV 17345.57636420  .00000920  00000-0  16868-3 0  9997
2 35066  74.0189  38.0088 0030999 217.4011 142.5001 14.67008925238204
